      2.10          N: GNSS NAV DATA                        RINEX VERSION / TYPE
fic2rin                                 10/08/2023 00:18:02 PGM / RUN BY / DATE
                                                            END OF HEADER
2  23 10  7  2  0  0.0 -.545171555132D-03  .466116034659D-11  .000000000000D+00
     .570000000000D+02  .244062500000D+02  .441732685654D-08  .944073160322D+00
     .821426510811D-06  .160564808175D-01  .533834099770D-05  .515374302292D+04
     .525600000000D+06 -.122934579849D-06 -.875074058576D-01 -.271946191788D-06
     .967867138134D+00  .285531250000D+03 -.133632047975D+01 -.828784522202D-08
    -.112861844006D-09  .100000000000D+01  .228200000000D+04  .000000000000D+00
     .240000000000D+01  .000000000000D+00 -.176951289177D-07  .570000000000D+02
     .518400000000D+06  .400000000000D+01
1  23 10  7  2  0  0.0  .164079014212D-03 -.568434188608D-12  .000000000000D+00
     .280000000000D+02  .205000000000D+02  .373015537594D-08 -.171779384201D+01
     .112131237984D-05  .128685246455D-01  .467337667942D-05  .515363687134D+04
     .525600000000D+06  .255182385445D-06  .139585089251D-01 -.428408384323D-07
     .990659366699D+00  .305437500000D+03  .991991226336D+00 -.766424781811D-08
     .714315468392D-11  .100000000000D+01  .228200000000D+04  .000000000000D+00
     .240000000000D+01  .630000000000D+02  .512227416039D-08  .280000000000D+02
     .518400000000D+06  .400000000000D+01
3  23 10  7  2  0  0.0 -.939760357141D-04  .223963070312D-10  .000000000000D+00
     .440000000000D+02 -.622187500000D+02  .389051919860D-08 -.291937938088D+01
    -.309012830257D-05  .511877273675D-02  .519491732121D-05  .515359020996D+04
     .525600000000D+06 -.372529029846D-08  .104305529037D+01 -.149011611938D-07
     .980758508300D+00  .288968750000D+03  .111510767184D+01 -.775532304033D-08
     .542879755978D-10  .100000000000D+01  .228200000000D+04  .000000000000D+00
     .240000000000D+01  .000000000000D+00  .186264514923D-08  .440000000000D+02
     .518400000000D+06  .400000000000D+01
7  23 10  7  2  0  0.0  .472855754197D-04 -.103455022327D-10  .000000000000D+00
     .320000000000D+02  .120000000000D+02  .481091467962D-08 -.242805932703D+01
     .299885869026D-06  .175871085376D-01  .766478478909D-05  .515371385574D+04
     .525600000000D+06  .273808836937D-06  .313778570919D+01 -.912696123123D-07
     .950715972885D+00  .222531250000D+03 -.217054824025D+01 -.783032616451D-08
     .350014579512D-09  .100000000000D+01  .228200000000D+04  .000000000000D+00
     .240000000000D+01  .000000000000D+00 -.111758708954D-07  .320000000000D+02
     .518400000000D+06  .400000000000D+01
5  23 10  7  2  0  0.0 -.145522411913D-03 -.147792889038D-11  .000000000000D+00
     .111000000000D+03 -.719687500000D+02  .426482050404D-08  .769243659366D+00
    -.362470746040D-05  .599988934118D-02  .554695725441D-05  .515374121284D+04
     .525600000000D+06 -.987201929092D-07  .994751527463D+00 -.614672899246D-07
     .967796346065D+00  .280625000000D+03  .123327612610D+01 -.809890878063D-08
    -.657170230921D-10  .100000000000D+01  .228200000000D+04  .000000000000D+00
     .240000000000D+01  .000000000000D+00 -.111758708954D-07  .111000000000D+03
     .518400000000D+06  .400000000000D+01
4  23 10  7  2  0  0.0  .177180394530D-03  .109139364213D-10  .000000000000D+00
     .166000000000D+03 -.508125000000D+02  .428624996809D-08  .119351052365D+00
    -.260397791862D-05  .259456178173D-02  .825338065624D-05  .515362068367D+04
     .525600000000D+06  .726431608200D-07  .212369915335D+01 -.186264514923D-08
     .963340661862D+00  .221625000000D+03 -.305556437641D+01 -.790247202682D-08
     .233224000430D-09  .100000000000D+01  .228200000000D+04  .000000000000D+00
     .240000000000D+01  .000000000000D+00 -.419095158577D-08  .678000000000D+03
     .518400000000D+06  .400000000000D+01
15 23 10  7  3 59 44.0  .846437178552D-04  .375166564481D-11  .000000000000D+00
     .370000000000D+02 -.552187500000D+02  .503020952842D-08  .443250148634D+00
    -.275298953056D-05  .154856033623D-01  .844709575176D-05  .515378656197D+04
     .532784000000D+06 -.337138772011D-06  .194404271030D+01 -.335276126862D-07
     .933163017185D+00  .206500000000D+03  .125235450452D+01 -.842142221461D-08
     .660741808263D-10  .100000000000D+01  .228200000000D+04  .000000000000D+00
     .240000000000D+01  .000000000000D+00 -.107102096081D-07  .370000000000D+02
     .525600000000D+06  .400000000000D+01
2  23 10  7  4  0  0.0 -.545137561858D-03  .466116034659D-11  .000000000000D+00
     .580000000000D+02  .330000000000D+02  .434589530970D-08  .199406583643D+01
     .147148966789D-05  .160564277321D-01  .383518636227D-05  .515374737167D+04
     .532800000000D+06  .193715095520D-06 -.875654003190D-01 -.949949026108D-07
     .967867775966D+00  .299812500000D+03 -.133617681681D+01 -.793247327650D-08
    -.159649507186D-09  .100000000000D+01  .228200000000D+04  .000000000000D+00
     .240000000000D+01  .000000000000D+00 -.176951289177D-07  .580000000000D+02
     .525600000000D+06  .400000000000D+01
1  23 10  7  4  0  0.0  .164075288922D-03 -.568434188608D-12  .000000000000D+00
     .330000000000D+02  .248437500000D+02  .399552357245D-08 -.667629586092D+00
     .133365392685D-05  .128685891395D-01  .465475022793D-05  .515363610268D+04
     .532800000000D+06 -.782310962677D-07  .139024133313D-01  .253319740295D-06
     .990657105028D+00  .304593750000D+03  .992025787776D+00 -.810283751571D-08
    -.785747015231D-10  .100000000000D+01  .228200000000D+04  .000000000000D+00
     .240000000000D+01  .630000000000D+02  .512227416039D-08  .330000000000D+02
     .525600000000D+06  .400000000000D+01
3  23 10  7  4  0  0.0 -.938149169087D-04  .223963070312D-10  .000000000000D+00
     .450000000000D+02 -.648750000000D+02  .398480884043D-08 -.186914597720D+01
    -.333227217197D-05  .511918787379D-02  .515393912792D-05  .515358967590D+04
     .532800000000D+06  .154599547386D-06  .104299996427D+01 -.614672899246D-07
     .980758407359D+00  .293218750000D+03  .111510216834D+01 -.781746848608D-08
    -.632169189527D-10  .100000000000D+01  .228200000000D+04  .000000000000D+00
     .240000000000D+01  .000000000000D+00  .186264514923D-08  .450000000000D+02
     .525600000000D+06  .400000000000D+01
7  23 10  7  4  0  0.0  .472115352750D-04 -.103455022327D-10  .000000000000D+00
     .530000000000D+02  .148125000000D+02  .477519890620D-08 -.137792452697D+01
     .979751348495D-06  .175873736152D-01  .739656388760D-05  .515371295166D+04
     .532800000000D+06  .389292836189D-06  .313772971746D+01  .165775418282D-06
     .950717953676D+00  .225156250000D+03 -.217052478236D+01 -.797890378194D-08
     .268225458381D-09  .100000000000D+01  .228200000000D+04  .000000000000D+00
     .240000000000D+01  .000000000000D+00 -.111758708954D-07  .530000000000D+02
     .525600000000D+06  .400000000000D+01
5  23 10  7  4  0  0.0 -.145532656461D-03 -.147792889038D-11  .000000000000D+00
     .116000000000D+03 -.627500000000D+02  .435911014586D-08  .181954809649D+01
    -.349804759026D-05  .599927885924D-02  .536069273949D-05  .515373909760D+04
     .532800000000D+06 -.149011611938D-07  .994693192141D+00 -.121071934700D-06
     .967796027149D+00  .282281250000D+03  .123311102994D+01 -.805104964425D-08
    -.653598653579D-10  .100000000000D+01  .228200000000D+04  .000000000000D+00
     .340000000000D+01  .000000000000D+00 -.111758708954D-07  .116000000000D+03
     .525600000000D+06  .400000000000D+01
16 23 10  7  4  0  0.0 -.443082768470D-03  .591171556152D-11  .000000000000D+00
     .310000000000D+02  .361875000000D+02  .457519057505D-08  .246491744271D+01
     .179931521416D-05  .134566365741D-01  .775046646595D-05  .515366605949D+04
     .532800000000D+06 -.763684511185D-07 -.201241374474D+01 -.283122062683D-06
     .963763554906D+00  .232312500000D+03  .796280199489D+00 -.773889378456D-08
    -.167864135072D-09  .100000000000D+01  .228200000000D+04  .000000000000D+00
     .240000000000D+01  .000000000000D+00 -.102445483208D-07  .310000000000D+02
     .525600000000D+06  .400000000000D+01
20 23 10  7  4  0  0.0  .408117193729D-03 -.193267624127D-11  .000000000000D+00
     .230000000000D+02 -.487812500000D+02  .477734185261D-08  .167591703519D+00
    -.257603824139D-05  .408940424677D-02  .442005693913D-05  .515363167191D+04
     .532800000000D+06  .633299350739D-07  .869929041522D+00  .521540641785D-07
     .950385106166D+00  .288812500000D+03 -.282655182326D+01 -.836177687300D-08
    -.360729311538D-10  .100000000000D+01  .228200000000D+04  .000000000000D+00
     .240000000000D+01  .000000000000D+00 -.838190317154D-08  .230000000000D+02
     .525600000000D+06  .400000000000D+01
11 23 10  7  4  0  0.0 -.403495505452D-03 -.176214598469D-10  .000000000000D+00
     .690000000000D+02  .193125000000D+02  .446090010011D-08  .825236155427D+00
     .107660889626D-05  .120874994900D-02  .423565506935D-05  .515360882950D+04
     .532800000000D+06  .558793544769D-07  .438412966117D-01  .745058059692D-08
     .966139348496D+00  .300468750000D+03 -.269195819733D+01 -.818641242551D-08
    -.692886004340D-10  .100000000000D+01  .228200000000D+04  .000000000000D+00
     .240000000000D+01  .000000000000D+00 -.838190317154D-08  .690000000000D+02
     .525600000000D+06  .400000000000D+01
12 23 10  7  4  0  0.0 -.433053355664D-03 -.420641299570D-11  .000000000000D+00
     .580000000000D+02  .381875000000D+02  .460590614019D-08 -.202915096562D+01
     .207871198654D-05  .860964972526D-02  .707246363163D-05  .515377626038D+04
     .532800000000D+06  .165775418282D-06 -.203054308578D+01  .782310962677D-07
     .964157492412D+00  .243531250000D+03  .139364226364D+01 -.782889753358D-08
    -.935753263594D-10  .100000000000D+01  .228200000000D+04  .000000000000D+00
     .240000000000D+01  .000000000000D+00 -.125728547573D-07  .580000000000D+02
     .525600000000D+06  .400000000000D+01
